OBJECT_NAME,OBJECT_ID,EPOCH,MEAN_MOTION,ECCENTRICITY,INCLINATION,RA_OF_ASC_NODE,ARG_OF_PERICENTER,MEAN_ANOMALY,EPHEMERIS_TYPE,CLASSIFICATION_TYPE,NORAD_CAT_ID,ELEMENT_SET_NO,REV_AT_EPOCH,BSTAR,MEAN_MOTION_DOT,MEAN_MOTION_DDOT
CENTISPACE-1 GROUP 05 OBJECT J,2026-138J,2026-06-18T23:26:47.359392,14.15937982,.00081301,55.1435,274.5405,278.6009,81.4044,0,U,69636,999,24,.21502078E-4,-.111E-5,0
